{"type": "FeatureCollection", "features": [ {"type": "Feature", "properties": {"norad_id": 31615, "name": "FENGYUN 1C DEB", "group": "fengyun-1c-debris", "lat": -35.3946756399292, "lon": -144.08107183036861, "alt_km": 775.7470565947879, "timestamp": "2025-12-16T19:34:24.551108+00:00", "meta": {"OBJECT_NAME": "FENGYUN 1C DEB", "OBJECT_ID": "1999-025BZV", "EPOCH": "2025-12-15T09:05:47.714208", "MEAN_MOTION": 14.35398307, "ECCENTRICITY": 0.01659799, "INCLINATION": 99.1381, "RA_OF_ASC_NODE": 40.9648, "ARG_OF_PERICENTER": 308.9508, "MEAN_ANOMALY": 49.6982, "EPHEMERIS_TYPE": 0, "CLASSIFICATION_TYPE": "U", "NORAD_CAT_ID": 31615, "ELEMENT_SET_NO": 999, "REV_AT_EPOCH": 65316, "BSTAR": 0.0019695544, "MEAN_MOTION_DOT": 6.561e-05, "MEAN_MOTION_DDOT": 0}, "tle": {"line1": "1 31615U 99025BZV 25349.37902447  .00006561  00000+0  19696-2 0  9990", "line2": "2 31615  99.1381  40.9648 0165979 308.9508  49.6982 14.35398307653162"}}, "geometry": {"type": "Point", "coordinates": [-144.08107183036861, -35.3946756399292]}}, {"type": "Feature", "properties": {"norad_id": 31618, "name": "FENGYUN 1C DEB", "group": "fengyun-1c-debris", "lat": 71.2507736644548, "lon": 104.6672240939029, "alt_km": 868.8072851059351, "timestamp": "2025-12-16T19:34:24.551119+00:00", "meta": {"OBJECT_NAME": "FENGYUN 1C DEB", "OBJECT_ID": "1999-025BZY", "EPOCH": "2025-12-14T16:32:03.374880", "MEAN_MOTION": 14.21023198, "ECCENTRICITY": 0.01570716, "INCLINATION": 99.4428, "RA_OF_ASC_NODE": 131.7544, "ARG_OF_PERICENTER": 320.5364, "MEAN_ANOMALY": 38.4455, "EPHEMERIS_TYPE": 0, "CLASSIFICATION_TYPE": "U", "NORAD_CAT_ID": 31618, "ELEMENT_SET_NO": 999, "REV_AT_EPOCH": 70292, "BSTAR": 0.00035175997, "MEAN_MOTION_DOT": 8.12e-06, "MEAN_MOTION_DDOT": 0}, "tle": {"line1": "1 31618U 99025BZY 25348.68892795  .00000812  00000+0  35176-3 0  9995", "line2": "2 31618  99.4428 131.7544 0157071 320.5364  38.4455 14.21023198702926"}}, "geometry": {"type": "Point", "coordinates": [104.6672240939029, 71.2507736644548]}}, {"type": "Feature", "properties": {"norad_id": 31619, "name": "FENGYUN 1C DEB", "group": "fengyun-1c-debris", "lat": -58.14910662458974, "lon": -10.953855592430516, "alt_km": 569.0487363904713, "timestamp": "2025-12-16T19:34:24.551129+00:00", "meta": {"OBJECT_NAME": "FENGYUN 1C DEB", "OBJECT_ID": "1999-025BZZ", "EPOCH": "2025-12-15T18:14:52.575936", "MEAN_MOTION": 14.85761892, "ECCENTRICITY": 0.00949494, "INCLINATION": 99.0717, "RA_OF_ASC_NODE": 182.7472, "ARG_OF_PERICENTER": 285.3106, "MEAN_ANOMALY": 73.7627, "EPHEMERIS_TYPE": 0, "CLASSIFICATION_TYPE": "U", "NORAD_CAT_ID": 31619, "ELEMENT_SET_NO": 999, "REV_AT_EPOCH": 63533, "BSTAR": 0.0029985825, "MEAN_MOTION_DOT": 0.00028294, "MEAN_MOTION_DDOT": 0}, "tle": {"line1": "1 31619U 99025BZZ 25349.76033074  .00028294  00000+0  29986-2 0  9998", "line2": "2 31619  99.0717 182.7472 0094949 285.3106  73.7627 14.85761892635339"}}, "geometry": {"type": "Point", "coordinates": [-10.953855592430516, -58.14910662458974]}}, {"type": "Feature", "properties": {"norad_id": 31620, "name": "FENGYUN 1C DEB", "group": "fengyun-1c-debris", "lat": -49.67311605745494, "lon": -115.5897062497528, "alt_km": 787.8284181044055, "timestamp": "2025-12-16T19:34:24.551140+00:00", "meta": {"OBJECT_NAME": "FENGYUN 1C DEB", "OBJECT_ID": "1999-025CAA", "EPOCH": "2025-12-14T11:22:10.162272", "MEAN_MOTION": 14.37262529, "ECCENTRICITY": 0.00200194, "INCLINATION": 98.8873, "RA_OF_ASC_NODE": 72.6139, "ARG_OF_PERICENTER": 38.5299, "MEAN_ANOMALY": 321.7311, "EPHEMERIS_TYPE": 0, "CLASSIFICATION_TYPE": "U", "NORAD_CAT_ID": 31620, "ELEMENT_SET_NO": 999, "REV_AT_EPOCH": 65869, "BSTAR": 0.0025481582, "MEAN_MOTION_DOT": 7.572e-05, "MEAN_MOTION_DDOT": 0}, "tle": {"line1": "1 31620U 99025CAA 25348.47372873  .00007572  00000+0  25482-2 0  9993", "line2": "2 31620  98.8873  72.6139 0020019  38.5299 321.7311 14.37262529658696"}}, "geometry": {"type": "Point", "coordinates": [-115.5897062497528, -49.67311605745494]}}, {"type": "Feature", "properties": {"norad_id": 31622, "name": "FENGYUN 1C DEB", "group": "fengyun-1c-debris", "lat": -34.04610089281303, "lon": -100.3316161368202, "alt_km": 778.4036532521877, "timestamp": "2025-12-16T19:34:24.551150+00:00", "meta": {"OBJECT_NAME": "FENGYUN 1C DEB", "OBJECT_ID": "1999-025CAC", "EPOCH": "2025-12-15T05:56:39.641856", "MEAN_MOTION": 14.37212636, "ECCENTRICITY": 0.0015054, "INCLINATION": 98.8161, "RA_OF_ASC_NODE": 84.0816, "ARG_OF_PERICENTER": 334.2043, "MEAN_ANOMALY": 52.7933, "EPHEMERIS_TYPE": 0, "CLASSIFICATION_TYPE": "U", "NORAD_CAT_ID": 31622, "ELEMENT_SET_NO": 999, "REV_AT_EPOCH": 95808, "BSTAR": 0.0013203296, "MEAN_MOTION_DOT": 3.891e-05, "MEAN_MOTION_DDOT": 0}, "tle": {"line1": "1 31622U 99025CAC 25349.24768104  .00003891  00000+0  13203-2 0  9995", "line2": "2 31622  98.8161  84.0816 0015054 334.2043  52.7933 14.37212636958084"}}, "geometry": {"type": "Point", "coordinates": [-100.3316161368202, -34.04610089281303]}}, {"type": "Feature", "properties": {"norad_id": 31623, "name": "FENGYUN 1C DEB", "group": "fengyun-1c-debris", "lat": 68.93356246352799, "lon": -178.73881320597738, "alt_km": 909.6881615563352, "timestamp": "2025-12-16T19:34:24.551160+00:00", "meta": {"OBJECT_NAME": "FENGYUN 1C DEB", "OBJECT_ID": "1999-025CAD", "EPOCH": "2025-12-02T20:02:22.350624", "MEAN_MOTION": 13.82580933, "ECCENTRICITY": 0.01951152, "INCLINATION": 97.6304, "RA_OF_ASC_NODE": 190.283, "ARG_OF_PERICENTER": 33.7651, "MEAN_ANOMALY": 327.5758, "EPHEMERIS_TYPE": 0, "CLASSIFICATION_TYPE": "U", "NORAD_CAT_ID": 31623, "ELEMENT_SET_NO": 999, "REV_AT_EPOCH": 57783, "BSTAR": 0.00047153491, "MEAN_MOTION_DOT": 5.61e-06, "MEAN_MOTION_DDOT": 0}, "tle": {"line1": "1 31623U 99025CAD 25336.83498091  .00000561  00000+0  47153-3 0  9995", "line2": "2 31623  97.6304 190.2830 0195115  33.7651 327.5758 13.82580933577835"}}, "geometry": {"type": "Point", "coordinates": [-178.73881320597738, 68.93356246352799]}}, {"type": "Feature", "properties": {"norad_id": 31625, "name": "FENGYUN 1C DEB", "group": "fengyun-1c-debris", "lat": 74.18236774826309, "lon": -69.76471180774291, "alt_km": 717.3687523867484, "timestamp": "2025-12-16T19:34:24.551170+00:00", "meta": {"OBJECT_NAME": "FENGYUN 1C DEB", "OBJECT_ID": "1999-025CAF", "EPOCH": "2025-12-15T17:24:06.244992", "MEAN_MOTION": 14.55403153, "ECCENTRICITY": 0.01491332, "INCLINATION": 98.8061, "RA_OF_ASC_NODE": 75.9118, "ARG_OF_PERICENTER": 6.6958, "MEAN_ANOMALY": 144.5291, "EPHEMERIS_TYPE": 0, "CLASSIFICATION_TYPE": "U", "NORAD_CAT_ID": 31625, "ELEMENT_SET_NO": 999, "REV_AT_EPOCH": 98436, "BSTAR": 0.00014216009, "MEAN_MOTION_DOT": 6.57e-06, "MEAN_MOTION_DDOT": 0}, "tle": {"line1": "1 31625U 99025CAF 25349.72507228  .00000657  00000+0  14216-3 0  9992", "line2": "2 31625  98.8061  75.9118 0149133   6.6958 144.5291 14.55403153984364"}}, "geometry": {"type": "Point", "coordinates": [-69.76471180774291, 74.18236774826309]}}, {"type": "Feature", "properties": {"norad_id": 31627, "name": "FENGYUN 1C DEB", "group": "fengyun-1c-debris", "lat": 41.90495791561854, "lon": 30.90167186850399, "alt_km": 775.1486603429785, "timestamp": "2025-12-16T19:34:24.551180+00:00", "meta": {"OBJECT_NAME": "FENGYUN 1C DEB", "OBJECT_ID": "1999-025CAH", "EPOCH": "2025-11-26T09:13:22.975680", "MEAN_MOTION": 14.35408996, "ECCENTRICITY": 0.00515931, "INCLINATION": 98.5313, "RA_OF_ASC_NODE": 18.4415, "ARG_OF_PERICENTER": 201.9005, "MEAN_ANOMALY": 157.9975, "EPHEMERIS_TYPE": 0, "CLASSIFICATION_TYPE": "U", "NORAD_CAT_ID": 31627, "ELEMENT_SET_NO": 999, "REV_AT_EPOCH": 64532, "BSTAR": 0.0013473839, "MEAN_MOTION_DOT": 3.885e-05, "MEAN_MOTION_DDOT": 0}, "tle": {"line1": "1 31627U 99025CAH 25330.38429370  .00003885  00000+0  13474-2 0  9997", "line2": "2 31627  98.5313  18.4415 0051593 201.9005 157.9975 14.35408996645325"}}, "geometry": {"type": "Point", "coordinates": [30.90167186850399, 41.90495791561854]}}, {"type": "Feature", "properties": {"norad_id": 31628, "name": "FENGYUN 1C DEB", "group": "fengyun-1c-debris", "lat": 14.499452003707061, "lon": -156.32179546578655, "alt_km": 1058.958219874905, "timestamp": "2025-12-16T19:34:24.551190+00:00", "meta": {"OBJECT_NAME": "FENGYUN 1C DEB", "OBJECT_ID": "1999-025CAJ", "EPOCH": "2025-12-15T20:59:30.602400", "MEAN_MOTION": 13.86850474, "ECCENTRICITY": 0.01684083, "INCLINATION": 102.2705, "RA_OF_ASC_NODE": 205.6739, "ARG_OF_PERICENTER": 212.719, "MEAN_ANOMALY": 146.3435, "EPHEMERIS_TYPE": 0, "CLASSIFICATION_TYPE": "U", "NORAD_CAT_ID": 31628, "ELEMENT_SET_NO": 999, "REV_AT_EPOCH": 93343, "BSTAR": 0.0016134488, "MEAN_MOTION_DOT": 2.038e-05, "MEAN_MOTION_DDOT": 0}, "tle": {"line1": "1 31628U 99025CAJ 25349.87465975  .00002038  00000+0  16134-2 0  9998", "line2": "2 31628 102.2705 205.6739 0168408 212.7190 146.3435 13.86850474933434"}}, "geometry": {"type": "Point", "coordinates": [-156.32179546578655, 14.499452003707061]}}, {"type": "Feature", "properties": {"norad_id": 31629, "name": "FENGYUN 1C DEB", "group": "fengyun-1c-debris", "lat": -47.74272877270254, "lon": 51.88415552121859, "alt_km": 819.2149791979664, "timestamp": "2025-12-16T19:34:24.551200+00:00", "meta": {"OBJECT_NAME": "FENGYUN 1C DEB", "OBJECT_ID": "1999-025CAK", "EPOCH": "2025-12-11T09:06:19.184544", "MEAN_MOTION": 14.14603971, "ECCENTRICITY": 0.01037698, "INCLINATION": 102.1333, "RA_OF_ASC_NODE": 30.8256, "ARG_OF_PERICENTER": 30.7835, "MEAN_ANOMALY": 329.9357, "EPHEMERIS_TYPE": 0, "CLASSIFICATION_TYPE": "U", "NORAD_CAT_ID": 31629, "ELEMENT_SET_NO": 999, "REV_AT_EPOCH": 94427, "BSTAR": 0.0036724115, "MEAN_MOTION_DOT": 7.369e-05, "MEAN_MOTION_DDOT": 0}, "tle": {"line1": "1 31629U 99025CAK 25345.37938871  .00007369  00000+0  36724-2 0  9999", "line2": "2 31629 102.1333  30.8256 0103769  30.7835 329.9357 14.14603971944272"}}, "geometry": {"type": "Point", "coordinates": [51.88415552121859, -47.74272877270254]}}]}